[{"OBJECT_NAME":"STARLINK-34928","OBJECT_ID":"2025-175X","EPOCH":"2026-03-09T14:47:24.405216","MEAN_MOTION":15.05647683,"ECCENTRICITY":0.0001825,"INCLINATION":97.6015,"RA_OF_ASC_NODE":302.6523,"ARG_OF_PERICENTER":69.2169,"MEAN_ANOMALY":290.9254,"EPHEMERIS_TYPE":0,"CLASSIFICATION_TYPE":"U","NORAD_CAT_ID":65195,"ELEMENT_SET_NO":999,"REV_AT_EPOCH":3263,"BSTAR":0.00016214,"MEAN_MOTION_DOT":2.279e-5,"MEAN_MOTION_DDOT":0},{"OBJECT_NAME":"THOR AGENA B DEB","OBJECT_ID":"1965-098J","EPOCH":"2026-03-09T15:55:33.898656","MEAN_MOTION":12.39065528,"ECCENTRICITY":0.1280637,"INCLINATION":79.7465,"RA_OF_ASC_NODE":159.9057,"ARG_OF_PERICENTER":252.7397,"MEAN_ANOMALY":243.9853,"EPHEMERIS_TYPE":0,"CLASSIFICATION_TYPE":"U","NORAD_CAT_ID":2153,"ELEMENT_SET_NO":999,"REV_AT_EPOCH":67470,"BSTAR":0.00058104,"MEAN_MOTION_DOT":1.819e-5,"MEAN_MOTION_DDOT":0}]
